H1 CPF 01  gfz 2022 02 12 13  5432 tandemx   
H2 1003001  6202 36605    2022 02 12 12 59 42 2022 02 17 00 00 42   120 1 1  0 0 0
H9
10 0 59626  32382.000000  0   -2450701.422   3414685.865   5447898.546
10 0 59626  32502.000000  0   -1835325.009   2940624.558   5942725.192
10 0 59626  32622.000000  0   -1196750.599   2404251.151   6333061.908
10 0 59626  32742.000000  0    -547143.777   1814644.475   6612084.142
10 0 59626  32862.000000  0     101314.248   1182016.189   6774917.812
10 0 59626  32982.000000  0     736654.970    517532.032   6818719.716
10 0 59626  33102.000000  0    1347342.547   -166885.044   6742723.415
10 0 59626  33222.000000  0    1922482.133   -858767.860   6548252.611
10 0 59626  33342.000000  0    2452013.828  -1545331.581   6238699.870
10 0 59626  33462.000000  0    2926889.727  -2213709.148   5819472.273
10 0 59626  33582.000000  0    3339231.376  -2851193.409   5297902.392
10 0 59626  33702.000000  0    3682463.801  -3445480.544   4683126.113
10 0 59626  33822.000000  0    3951424.660  -3984911.134   3985928.221
10 0 59626  33942.000000  0    4142445.863  -4458703.837   3218556.670
10 0 59626  34062.000000  0    4253405.212  -4857176.467   2394508.612
10 0 59626  34182.000000  0    4283747.312  -5171948.969   1528290.885
10 0 59626  34302.000000  0    4234472.082  -5396122.795    635159.505
10 0 59626  34422.000000  0    4108090.754  -5524431.611   -269156.120
10 0 59626  34542.000000  0    3908552.362  -5553360.972  -1168737.754
10 0 59626  34662.000000  0    3641139.974  -5481233.088  -2047768.412
10 0 59626  34782.000000  0    3312340.394  -5308253.123  -2890817.757
10 0 59626  34902.000000  0    2929691.806  -5036517.965  -3683118.786
10 0 59626  35022.000000  0    2501611.728  -4669986.730  -4410828.835
10 0 59626  35142.000000  0    2037210.795  -4214414.887  -5061269.545
10 0 59626  35262.000000  0    1546098.431  -3677253.702  -5623141.437
10 0 59626  35382.000000  0    1038184.883  -3067519.805  -6086710.613
10 0 59626  35502.000000  0     523482.435  -2395638.028  -6443966.935
10 0 59626  35622.000000  0      11910.085  -1673259.190  -6688751.613
10 0 59626  35742.000000  0    -486893.676   -913056.781  -6816852.800
10 0 59626  35862.000000  0    -963747.255   -128506.574  -6826070.007
10 0 59626  35982.000000  0   -1410090.726    666347.388  -6716246.936
10 0 59626  36102.000000  0   -1818136.000   1457137.580  -6489273.407
10 0 59626  36222.000000  0   -2180999.434   2229426.311  -6149056.133
10 0 59626  36342.000000  0   -2492816.950   2968963.421  -5701459.773
10 0 59626  36462.000000  0   -2748839.352   3661946.737  -5154216.170
10 0 59626  36582.000000  0   -2945506.599   4295280.102  -4516802.710
10 0 59626  36702.000000  0   -3080499.501   4856824.812  -3800288.367
10 0 59626  36822.000000  0   -3152766.041   5335637.451  -3017149.290
10 0 59626  36942.000000  0   -3162522.579   5722189.742  -2181059.133
10 0 59626  37062.000000  0   -3111230.537   6008568.117  -1306654.150
10 0 59626  37182.000000  0   -3001545.828   6188644.330   -409275.209
10 0 59626  37302.000000  0   -2837244.597   6258211.982    495304.292
10 0 59626  37422.000000  0   -2623126.920   6215089.299   1391163.524
10 0 59626  37542.000000  0   -2364895.960   6059178.401   2262526.150
10 0 59626  37662.000000  0   -2069018.812   5792480.425   3094047.182
10 0 59626  37782.000000  0   -1742573.999   5419069.064   3871089.731
10 0 59626  37902.000000  0   -1393089.058   4945023.419   4579987.245
10 0 59626  38022.000000  0   -1028371.479   4378321.247   5208286.438
10 0 59626  38142.000000  0    -656336.406   3728695.461   5744964.836
10 0 59626  38262.000000  0    -284838.060   3007458.691   6180620.570
10 0 59626  38382.000000  0      78493.741   2227298.370   6507631.570
10 0 59626  38502.000000  0     426408.006   1402049.082   6720282.680
10 0 59626  38622.000000  0     752175.704    546443.823   6814860.067
10 0 59626  38742.000000  0    1049718.375   -324149.257   6789710.962
10 0 59626  38862.000000  0    1313720.628  -1194001.706   6645271.870
10 0 59626  38982.000000  0    1539725.060  -2047308.548   6384061.847
10 0 59626  39102.000000  0    1724207.888  -2868475.255   6010642.050
10 0 59626  39222.000000  0    1864634.194  -3642404.574   5531540.934
10 0 59626  39342.000000  0    1959491.555  -4354777.207   4955145.118
10 0 59626  39462.000000  0    2008302.188  -4992320.516   4291558.330
10 0 59626  39582.000000  0    2011614.238  -5543063.713   3552430.323
10 0 59626  39702.000000  0    1970969.907  -5996572.271   2750753.698
10 0 59626  39822.000000  0    1888850.972  -6344153.869   1900634.586
10 0 59626  39942.000000  0    1768605.451  -6579032.583   1017041.898
10 0 59626  40062.000000  0    1614354.933  -6696487.929    115538.498
10 0 59626  40182.000000  0    1430884.852  -6693954.751   -788000.525
10 0 59626  40302.000000  0    1223519.985  -6571078.616  -1677679.274
10 0 59626  40422.000000  0     997988.597  -6329723.184  -2537869.108
10 0 59626  40542.000000  0     760280.254  -5973934.310  -3353489.215
10 0 59626  40662.000000  0     516502.184  -5509861.500  -4110274.190
10 0 59626  40782.000000  0     272734.693  -4945639.077  -4795023.387
10 0 59626  40902.000000  0      34890.522  -4291230.862  -5395826.412
10 0 59626  41022.000000  0    -191418.370  -3558243.356  -5902262.824
10 0 59626  41142.000000  0    -401003.975  -2759710.969  -6305572.800
10 0 59626  41262.000000  0    -589212.945  -1909858.986  -6598797.280
10 0 59626  41382.000000  0    -752023.175  -1023848.903  -6776886.710
10 0 59626  41502.000000  0    -886124.620   -117510.493  -6836779.384
10 0 59626  41622.000000  0    -988983.044    792936.375  -6777447.498
10 0 59626  41742.000000  0   -1058886.308   1691164.378  -6599912.201
10 0 59626  41862.000000  0   -1094972.427   2561024.093  -6307227.676
10 0 59626  41982.000000  0   -1097238.866   3386827.969  -5904435.559
10 0 59626  42102.000000  0   -1066533.441   4153630.933  -5398487.498
10 0 59626  42222.000000  0   -1004526.143   4847501.012  -4798136.184
10 0 59626  42342.000000  0    -913663.065   5455777.393  -4113795.367
10 0 59626  42462.000000  0    -797102.573   5967309.410  -3357368.427
10 0 59626  42582.000000  0    -658634.555   6372670.796  -2542048.750
10 0 59626  42702.000000  0    -502584.322   6664345.653  -1682094.357
10 0 59626  42822.000000  0    -333703.590   6836880.039   -792578.987
10 0 59626  42942.000000  0    -157050.218   6886995.142    110874.758
10 0 59626  43062.000000  0      22140.286   6813658.597   1012375.947
10 0 59626  43182.000000  0     198587.585   6618110.661   1896054.151
10 0 59626  43302.000000  0     367099.708   6303842.476   2746348.381
10 0 59626  43422.000000  0     522703.544   5876529.487   3548287.906
10 0 59626  43542.000000  0     660770.296   5343923.364   4287760.950
10 0 59626  43662.000000  0     777132.764   4715704.934   4951769.888
10 0 59626  43782.000000  0     868189.034   4003292.514   5528660.467
10 0 59626  43902.000000  0     930994.002   3219626.160   6008320.803
10 0 59626  44022.000000  0     963334.669   2378925.007   6382354.709
10 0 59626  44142.000000  0     963787.165   1496423.227   6644222.899
10 0 59626  44262.000000  0     931755.829    588089.915   6789351.361
10 0 59626  44382.000000  0     867493.358   -329660.535   6815205.275
10 0 59626  44502.000000  0     772101.468  -1240263.691   6721331.692
10 0 59626  44622.000000  0     647511.925  -2127304.084   6509367.654
10 0 59626  44742.000000  0     496448.151  -2974811.141   6183014.079
10 0 59626  44862.000000  0     322368.045  -3767548.944   5747973.899
10 0 59626  44982.000000  0     129389.717  -4491290.931   5211855.989
10 0 59626  45102.000000  0     -77798.342  -5133078.562   4584049.587
10 0 59626  45222.000000  0    -294042.154  -5681462.215   3875567.450
10 0 59626  45342.000000  0    -513841.248  -6126716.161   3098855.608
10 0 59626  45462.000000  0    -731478.086  -6461021.276   2267575.320
10 0 59626  45582.000000  0    -941153.746  -6678611.118   1396360.495
10 0 59626  45702.000000  0   -1137128.465  -6775880.744    500556.144
10 0 59626  45822.000000  0   -1313863.684  -6751451.368   -404061.172
10 0 59626  45942.000000  0   -1466159.328  -6606188.374  -1301570.552
10 0 59626  46062.000000  0   -1589284.098  -6343174.547  -2176195.353
10 0 59626  46182.000000  0   -1679096.088  -5967639.710  -3012587.533
10 0 59626  46302.000000  0   -1732150.706  -5486848.003  -3796102.360
10 0 59626  46422.000000  0   -1745792.714  -4909945.469  -4513056.571
10 0 59626  46542.000000  0   -1718230.236  -4247773.781  -5150964.165
10 0 59626  46662.000000  0   -1648589.914  -3512656.198  -5698747.082
10 0 59626  46782.000000  0   -1536952.108  -2718160.437  -6146918.796
10 0 59626  46902.000000  0   -1384365.484  -1878842.718  -6487738.297
10 0 59626  47022.000000  0   -1192841.294  -1009979.088  -6715331.898
10 0 59626  47142.000000  0    -965328.261   -127289.553  -6825783.945
10 0 59626  47262.000000  0    -705667.690    753341.400  -6817196.311
10 0 59626  47382.000000  0    -418529.164   1616143.274  -6689716.940
10 0 59626  47502.000000  0    -109329.252   2445734.504  -6445537.421
10 0 59626  47622.000000  0     215866.775   3227390.723  -6088861.051
10 0 59626  47742.000000  0     550460.543   3947303.971  -5625838.740
10 0 59626  47862.000000  0     887449.673   4592826.081  -5064472.300
10 0 59626  47982.000000  0    1219568.861   5152694.624  -4414488.206
10 0 59626  48102.000000  0    1539441.460   5617237.383  -3687179.555
10 0 59626  48222.000000  0    1839737.972   5978548.969  -2895218.266
10 0 59626  48342.000000  0    2113338.104   6230637.001  -2052440.513
10 0 59626  48462.000000  0    2353493.110   6369533.834  -1173606.995
10 0 59626  48582.000000  0    2553984.025   6393369.008   -274141.804
10 0 59626  48702.000000  0    2709271.547   6302399.627    630143.823
10 0 59626  48822.000000  0    2814633.551   6098998.126   1523336.443
99
